{
    "links": {
        "self": "http://www.neowsapp.com/rest/v1/neo/3747354?api_key=iIulBulltgU6a56xZRHN4H3l9WmuAYTsLGpBGhQ2"
    },
    "id": "3747354",
    "neo_reference_id": "3747354",
    "name": "(2016 EH158)",
    "designation": "2016 EH158",
    "nasa_jpl_url": "http://ssd.jpl.nasa.gov/sbdb.cgi?sstr=3747354",
    "absolute_magnitude_h": 21.4,
    "estimated_diameter": {
        "kilometers": {
            "estimated_diameter_min": 0.1394938229,
            "estimated_diameter_max": 0.3119176705
        },
        "meters": {
            "estimated_diameter_min": 139.4938229344,
            "estimated_diameter_max": 311.9176705226
        },
        "miles": {
            "estimated_diameter_min": 0.0866774163,
            "estimated_diameter_max": 0.1938165949
        },
        "feet": {
            "estimated_diameter_min": 457.6569140361,
            "estimated_diameter_max": 1023.3519701574
        }
    },
    "is_potentially_hazardous_asteroid": false,
    "close_approach_data": [
        {
            "close_approach_date": "2016-03-10",
            "close_approach_date_full": "2016-Mar-10 10:11",
            "epoch_date_close_approach": 1457604660000,
            "relative_velocity": {
                "kilometers_per_second": "23.7577375336",
                "kilometers_per_hour": "85527.8551209798",
                "miles_per_hour": "53143.6830889221"
            },
            "miss_distance": {
                "astronomical": "0.2866954838",
                "lunar": "111.5245431982",
                "kilometers": "42889033.715099506",
                "miles": "26650009.7731889428"
            },
            "orbiting_body": "Earth"
        }
    ],
    "orbital_data": {
        "orbit_id": "12",
        "orbit_determination_date": "2017-04-06 08:27:24",
        "first_observation_date": "2016-03-14",
        "last_observation_date": "2016-04-03",
        "data_arc_in_days": 20,
        "observations_used": 39,
        "orbit_uncertainty": "8",
        "minimum_orbit_intersection": ".282413",
        "jupiter_tisserand_invariant": "4.550",
        "epoch_osculation": "2457465.5",
        "eccentricity": ".05022165490529383",
        "semi_major_axis": "1.339938975266275",
        "inclination": "48.89186150865953",
        "ascending_node_longitude": "170.221404037442",
        "orbital_period": "566.5339710166387",
        "perihelion_distance": "1.272645022456299",
        "perihelion_argument": "341.5257574253424",
        "aphelion_distance": "1.407232928076251",
        "perihelion_time": "2457428.568274268069",
        "mean_anomaly": "23.46800358615156",
        "mean_motion": ".6354429185490573",
        "equinox": "J2000",
        "orbit_class": {
            "orbit_class_type": "AMO",
            "orbit_class_description": "Near-Earth asteroid orbits similar to that of 1221 Amor",
            "orbit_class_range": "1.017 AU < q (perihelion) < 1.3 AU"
        }
    },
    "is_sentry_object": false
}